{"type":"FeatureCollection","features":[{"type":"Feature","geometry":{"type":"Polygon","coordinates":[[[-105.05289,39.91422],[-105.05325,39.79106],[-104.96886,39.79104],[-104.94971,39.79462],[-104.90344,39.78389],[-104.90356,39.79839],[-104.79089,39.79825],[-104.79086,39.8418],[-104.73095,39.84519],[-104.73039,39.89613],[-104.70331,39.89595],[-104.67966,39.90701],[-104.64036,39.90671],[-104.59958,39.89904],[-104.60526,39.87311],[-104.61915,39.87322],[-104.61974,39.82685],[-104.62557,39.82249],[-104.76246,39.82344],[-104.76261,39.79843],[-104.7344,39.79844],[-104.73475,39.76921],[-104.78158,39.7728],[-104.85639,39.76858],[-104.8799,39.75473],[-104.88465,39.74016],[-104.6162,39.74],[-104.50738,39.73825],[-104.38011,39.73811],[-103.97434,39.73998],[-103.70655,39.73989],[-103.7057,40.00137],[-104.15033,40.00086],[-104.60406,40.00056],[-104.9614,40.00034],[-104.98096,40.00024],[-104.98776,39.98153],[-105.01584,39.98119],[-105.01547,39.92131],[-105.05289,39.91422]]]},"properties":{"fips":"08001","name":"Adams"}},{"type":"Feature","geometry":{"type":"Polygon","coordinates":[[[-106.03841,37.74835],[-106.03933,37.40085],[-106.03891,37.35695],[-105.74334,37.3568],[-105.49631,37.56385],[-105.48552,37.5779],[-105.50175,37.59757],[-105.48698,37.65348],[-105.47735,37.66575],[-105.4773,37.70769],[-105.45424,37.72395],[-105.45725,37.75146],[-105.80933,37.75045],[-106.03841,37.74835]]]},"properties":{"fips":"08003","name":"Alamosa"}},{"type":"Feature","geometry":{"type":"Polygon","coordinates":[[[-105.05364,39.61398],[-105.04874,39.56609],[-104.66016,39.56591],[-104.4214,39.56369],[-104.19381,39.56523],[-103.71435,39.56633],[-103.70707,39.56629],[-103.70655,39.73989],[-103.97434,39.73998],[-104.38011,39.73811],[-104.50738,39.73825],[-104.6162,39.74],[-104.88465,39.74016],[-104.86597,39.71105],[-104.90344,39.68486],[-104.90351,39.66762],[-104.84894,39.65652],[-104.88512,39.63895],[-104.88526,39.62413],[-104.91341,39.62408],[-104.91323,39.63867],[-104.95498,39.65299],[-104.97459,39.66769],[-105.00035,39.66773],[-105.02527,39.65682],[-105.03482,39.62781],[-105.05341,39.6315],[-105.05346,39.62953],[-105.05364,39.61398]]]},"properties":{"fips":"08005","name":"Arapahoe"}},{"type":"Feature","geometry":{"type":"Polygon","coordinates":[[[-107.48213,37.42267],[-107.48206,37.21484],[-107.48174,37],[-107.42091,37.00001],[-106.87729,37.00014],[-106.8698,36.99243],[-106.75059,36.99246],[-106.47628,36.99384],[-106.48906,37.01508],[-106.58918,37.14019],[-106.59738,37.19497],[-106.67835,37.22857],[-106.67837,37.4036],[-106.71077,37.40423],[-106.71077,37.39624],[-107.12874,37.39241],[-107.12868,37.42294],[-107.48213,37.42267]]]},"properties":{"fips":"08007","name":"Archuleta"}},{"type":"Feature","geometry":{"type":"Polygon","coordinates":[[[-103.07594,37.64342],[-103.07466,37.38175],[-103.08254,37.38161],[-103.0861,37.00017],[-103.0022,37.0001],[-102.98698,36.99852],[-102.81714,36.99977],[-102.69814,36.99515],[-102.35537,36.99457],[-102.04224,36.99308],[-102.04159,37.38919],[-102.04158,37.64428],[-102.54,37.64373],[-102.74761,37.64364],[-103.07594,37.64342]]]},"properties":{"fips":"08009","name":"Baca"}},{"type":"Feature","geometry":{"type":"Polygon","coordinates":[[[-103.39994,38.26543],[-103.39862,38.04143],[-103.40368,37.82279],[-103.40434,37.64358],[-103.07594,37.64342],[-102.74761,37.64364],[-102.74771,37.82345],[-102.74046,37.82406],[-102.74168,38.09698],[-102.74233,38.26697],[-102.82291,38.26649],[-103.39994,38.26543]]]},"properties":{"fips":"08011","name":"Bent"}},{"type":"Feature","geometry":{"type":"Polygon","coordinates":[[[-105.65332,40.26046],[-105.67056,40.2078],[-105.67769,40.20167],[-105.66773,40.15828],[-105.63655,40.14638],[-105.62609,40.12735],[-105.63465,40.11323],[-105.63543,40.07495],[-105.64858,40.06198],[-105.63741,40.04551],[-105.65279,40.02377],[-105.68982,40.01511],[-105.68316,39.99288],[-105.69359,39.94188],[-105.6758,39.93245],[-105.45735,39.93219],[-105.41902,39.92874],[-105.39785,39.91289],[-105.14714,39.91389],[-105.14704,39.92894],[-105.128,39.95417],[-105.10923,39.93554],[-105.09107,39.94328],[-105.08869,39.95842],[-105.0528,39.97767],[-105.05282,40.00026],[-105.05552,40.00025],[-105.05509,40.26179],[-105.15906,40.26122],[-105.28944,40.26279],[-105.391,40.25788],[-105.56174,40.26151],[-105.65332,40.26046]]]},"properties":{"fips":"08013","name":"Boulder"}},{"type":"Feature","geometry":{"type":"Polygon","coordinates":[[[-105.14714,39.91389],[-105.10861,39.91414],[-105.09669,39.89979],[-105.07169,39.89983],[-105.05289,39.91422],[-105.01547,39.92131],[-105.01584,39.98119],[-104.98776,39.98153],[-104.98096,40.00024],[-104.9614,40.00034],[-104.96107,40.04414],[-104.97924,40.04376],[-105.00801,40.00048],[-105.05282,40.00026],[-105.0528,39.97767],[-105.08869,39.95842],[-105.09107,39.94328],[-105.10923,39.93554],[-105.128,39.95417],[-105.14704,39.92894],[-105.14714,39.91389]]]},"properties":{"fips":"08014","name":"Broomfield"}},{"type":"Feature","geometry":{"type":"Polygon","coordinates":[[[-106.57797,39.05791],[-106.59723,39.04482],[-106.59169,39.02492],[-106.59921,38.99799],[-106.57716,38.99044],[-106.55421,38.99871],[-106.52839,38.98073],[-106.52851,38.95988],[-106.46503,38.91035],[-106.43717,38.91491],[-106.42183,38.92807],[-106.40212,38.91062],[-106.34524,38.90707],[-106.3261,38.911],[-106.3275,38.8823],[-106.3643,38.85342],[-106.38363,38.82471],[-106.40699,38.82933],[-106.42271,38.80763],[-106.41505,38.79964],[-106.41926,38.766],[-106.41743,38.72568],[-106.42527,38.71031],[-106.45187,38.69834],[-106.44018,38.68687],[-106.42954,38.65124],[-106.40119,38.6397],[-106.36525,38.6159],[-106.36102,38.59449],[-106.34462,38.56856],[-106.35418,38.53338],[-106.33821,38.49821],[-106.31176,38.49496],[-106.28853,38.46137],[-106.26607,38.44174],[-106.24536,38.43917],[-106.24694,38.42277],[-106.08813,38.42228],[-106.05798,38.44469],[-106.05857,38.45694],[-106.01904,38.45442],[-106.01075,38.44657],[-105.93819,38.50335],[-105.90872,38.50563],[-105.90376,38.54798],[-105.88543,38.56131],[-105.89249,38.57329],[-105.87854,38.60523],[-105.88715,38.62133],[-105.91566,38.63005],[-105.90791,38.65094],[-105.92621,38.67991],[-105.96975,38.69355],[-105.94618,38.71672],[-105.94786,38.74382],[-105.90659,38.80696],[-105.94162,38.84017],[-105.94317,38.85231],[-105.92512,38.87218],[-105.94124,38.88559],[-105.9743,38.88246],[-105.96577,38.90588],[-105.99445,38.91486],[-106.02814,38.94285],[-106.11099,38.9401],[-106.10438,38.97414],[-106.10895,38.98738],[-106.14541,38.9979],[-106.16853,38.99125],[-106.19262,39.01735],[-106.1825,39.03855],[-106.19101,39.05607],[-106.57797,39.05791]]]},"properties":{"fips":"08015","name":"Chaffee"}},{"type":"Feature","geometry":{"type":"Polygon","coordinates":[[[-103.16302,39.03761],[-103.16416,38.69013],[-103.17247,38.69006],[-103.17294,38.61245],[-103.06223,38.61502],[-102.04529,38.61517],[-102.04521,38.69757],[-102.04657,39.04704],[-102.36773,39.04563],[-102.40993,39.04415],[-102.71577,39.03868],[-102.72411,39.0402],[-103.16302,39.03761]]]},"properties":{"fips":"08017","name":"Cheyenne"}},{"type":"Feature","geometry":{"type":"Polygon","coordinates":[[[-105.92462,39.69897],[-105.92508,39.67942],[-105.91075,39.66229],[-105.88486,39.65708],[-105.86477,39.66722],[-105.84866,39.64416],[-105.79306,39.63633],[-105.77597,39.60514],[-105.82966,39.56486],[-105.58799,39.5682],[-105.39895,39.56606],[-105.39795,39.74604],[-105.42259,39.7552],[-105.49713,39.75786],[-105.54243,39.77377],[-105.5455,39.78688],[-105.62895,39.83274],[-105.63328,39.8437],[-105.69035,39.852],[-105.71698,39.83547],[-105.73643,39.8048],[-105.77703,39.79811],[-105.79901,39.80343],[-105.82295,39.7856],[-105.85494,39.79615],[-105.88762,39.7966],[-105.88048,39.7593],[-105.88371,39.73701],[-105.90828,39.72625],[-105.92462,39.69897]]]},"properties":{"fips":"08019","name":"Clear Creek"}},{"type":"Feature","geometry":{"type":"Polygon","coordinates":[[[-106.67837,37.4036],[-106.67835,37.22857],[-106.59738,37.19497],[-106.58918,37.14019],[-106.48906,37.01508],[-106.47628,36.99384],[-106.20147,36.99412],[-106.00632,36.99535],[-105.71847,36.99585],[-105.72847,37.01498],[-105.74652,37.01477],[-105.77139,37.04572],[-105.77017,37.06117],[-105.74084,37.1033],[-105.74883,37.135],[-105.7314,37.15625],[-105.72982,37.18068],[-105.74576,37.21813],[-105.7461,37.24777],[-105.72031,37.28561],[-105.73841,37.30676],[-105.74985,37.35088],[-105.74334,37.3568],[-106.03891,37.35695],[-106.03933,37.40085],[-106.14887,37.4011],[-106.48797,37.39935],[-106.48797,37.40158],[-106.67837,37.4036]]]},"properties":{"fips":"08021","name":"Conejos"}},{"type":"Feature","geometry":{"type":"Polygon","coordinates":[[[-105.74334,37.3568],[-105.74985,37.35088],[-105.73841,37.30676],[-105.72031,37.28561],[-105.7461,37.24777],[-105.74576,37.21813],[-105.72982,37.18068],[-105.7314,37.15625],[-105.74883,37.135],[-105.74084,37.1033],[-105.77017,37.06117],[-105.77139,37.04572],[-105.74652,37.01477],[-105.72847,37.01498],[-105.71847,36.99585],[-105.44725,36.99602],[-105.22051,36.99517],[-105.15504,36.99534],[-105.15418,37.29313],[-105.16891,37.36151],[-105.16642,37.38877],[-105.13857,37.40069],[-105.15618,37.45709],[-105.17537,37.45629],[-105.17132,37.51325],[-105.18402,37.55584],[-105.21843,37.5835],[-105.19324,37.59217],[-105.18999,37.6141],[-105.21423,37.62632],[-105.23598,37.62077],[-105.29762,37.65814],[-105.34856,37.63776],[-105.3703,37.6394],[-105.40031,37.61342],[-105.44228,37.61185],[-105.45449,37.59048],[-105.48552,37.5779],[-105.49631,37.56385],[-105.74334,37.3568]]]},"properties":{"fips":"08023","name":"Costilla"}},{"type":"Feature","geometry":{"type":"Polygon","coordinates":[[[-104.05392,38.52239],[-104.05472,38.26189],[-104.05824,38.14649],[-104.02216,38.14095],[-103.99325,38.14635],[-103.97438,38.13212],[-103.90066,38.12541],[-103.86198,38.12713],[-103.83562,38.11334],[-103.61917,38.11336],[-103.61928,38.17146],[-103.50936,38.17251],[-103.50176,38.26502],[-103.50698,38.34226],[-103.50467,38.51641],[-103.61298,38.51788],[-103.61299,38.52255],[-104.05392,38.52239]]]},"properties":{"fips":"08025","name":"Crowley"}},{"type":"Feature","geometry":{"type":"Polygon","coordinates":[[[-105.7969,38.26505],[-105.78976,38.24436],[-105.73674,38.20956],[-105.70041,38.16918],[-105.67304,38.15913],[-105.67627,38.14617],[-105.65586,38.09229],[-105.62721,38.06731],[-105.59711,38.01364],[-105.60435,38.00874],[-105.56031,37.95189],[-105.53331,37.95518],[-105.51109,37.93913],[-105.50227,37.92295],[-105.4732,37.89597],[-105.44027,37.89746],[-105.41363,37.89053],[-105.37709,37.9161],[-105.31708,37.93895],[-105.29743,37.90935],[-105.28322,37.89999],[-105.23856,37.96284],[-105.21537,37.97052],[-105.19707,37.99242],[-105.19459,38.00756],[-105.16865,38.01895],[-105.14795,38.00539],[-105.12597,37.95117],[-105.10851,37.9434],[-105.08438,37.95538],[-105.06606,37.94421],[-105.0632,37.91698],[-105.04992,37.91548],[-105.05068,38.11382],[-105.04829,38.12777],[-105.04921,38.25797],[-105.26291,38.25905],[-105.30404,38.25823],[-105.61255,38.26487],[-105.7969,38.26505]]]},"properties":{"fips":"08027","name":"Custer"}},{"type":"Feature","geometry":{"type":"Polygon","coordinates":[[[-107.50061,39.21792],[-107.63789,39.14202],[-107.65982,39.11255],[-107.68956,39.08717],[-107.73799,39.06616],[-107.76549,39.04329],[-107.79228,39.06051],[-107.85824,39.0798],[-107.90681,39.06073],[-107.91669,39.06383],[-107.98217,39.05988],[-107.9872,39.05288],[-108.05378,39.01405],[-108.09479,38.97968],[-108.08686,38.9678],[-108.12079,38.92721],[-108.13774,38.92605],[-108.14112,38.90648],[-108.37895,38.82911],[-108.3787,38.6681],[-107.84856,38.66811],[-107.50065,38.66855],[-107.50061,38.79921],[-107.50061,39.21792]]]},"properties":{"fips":"08029","name":"Delta"}},{"type":"Feature","geometry":{"type":"Polygon","coordinates":[[[-105.05325,39.79106],[-105.05326,39.66779],[-105.07197,39.65995],[-105.07327,39.63874],[-105.10987,39.63507],[-105.0914,39.61433],[-105.05364,39.61398],[-105.05346,39.62953],[-105.05341,39.6315],[-105.03482,39.62781],[-105.02527,39.65682],[-105.00035,39.66773],[-104.97459,39.66769],[-104.95498,39.65299],[-104.91323,39.63867],[-104.91341,39.62408],[-104.88526,39.62413],[-104.88512,39.63895],[-104.84894,39.65652],[-104.90351,39.66762],[-104.90344,39.68486],[-104.86597,39.71105],[-104.88465,39.74016],[-104.8799,39.75473],[-104.85639,39.76858],[-104.78158,39.7728],[-104.73475,39.76921],[-104.7344,39.79844],[-104.76261,39.79843],[-104.76246,39.82344],[-104.62557,39.82249],[-104.61974,39.82685],[-104.61915,39.87322],[-104.60526,39.87311],[-104.59958,39.89904],[-104.64036,39.90671],[-104.67966,39.90701],[-104.70331,39.89595],[-104.73039,39.89613],[-104.73095,39.84519],[-104.79086,39.8418],[-104.79089,39.79825],[-104.90356,39.79839],[-104.90344,39.78389],[-104.94971,39.79462],[-104.96886,39.79104],[-105.05325,39.79106]]]},"properties":{"fips":"08031","name":"Denver"}},{"type":"Feature","geometry":{"type":"Polygon","coordinates":[[[-109.04165,37.88109],[-109.04227,37.66607],[-109.04186,37.53073],[-109.04346,37.48482],[-108.91708,37.6319],[-108.69476,37.63152],[-108.66606,37.6332],[-108.16114,37.63526],[-108.108,37.63875],[-107.97009,37.63959],[-107.95708,37.64889],[-107.96942,37.67923],[-107.96887,37.69649],[-107.93721,37.70256],[-107.90135,37.719],[-107.87297,37.72242],[-107.87562,37.73885],[-107.86191,37.75602],[-107.86084,37.77552],[-107.88626,37.78545],[-107.89251,37.80266],[-107.92135,37.82371],[-107.95076,37.83576],[-107.97139,37.83243],[-107.98921,37.85664],[-108.03086,37.8555],[-108.05848,37.841],[-108.09053,37.83999],[-108.11252,37.85524],[-108.14153,37.83245],[-108.17491,37.83259],[-108.21016,37.82113],[-108.227,37.84348],[-108.23784,37.87639],[-108.2565,37.89461],[-108.81673,37.89551],[-108.82052,37.88085],[-109.04165,37.88109]]]},"properties":{"fips":"08033","name":"Dolores"}},{"type":"Feature","geometry":{"type":"Polygon","coordinates":[[[-105.04874,39.56609],[-105.07304,39.54527],[-105.0784,39.51149],[-105.09333,39.48805],[-105.12708,39.47819],[-105.12347,39.43431],[-105.17096,39.40783],[-105.16434,39.39114],[-105.16657,39.36175],[-105.22078,39.26806],[-105.26351,39.22926],[-105.26005,39.21045],[-105.28293,39.19995],[-105.28738,39.17944],[-105.31356,39.15912],[-105.32944,39.12949],[-105.03347,39.12978],[-104.66248,39.12953],[-104.66257,39.36204],[-104.66016,39.56591],[-105.04874,39.56609]]]},"properties":{"fips":"08035","name":"Douglas"}},{"type":"Feature","geometry":{"type":"Polygon","coordinates":[[[-107.03397,39.91891],[-107.11367,39.91911],[-107.11387,39.62489],[-107.11345,39.36607],[-106.9734,39.36564],[-106.42649,39.36187],[-106.40063,39.38096],[-106.38063,39.37615],[-106.37082,39.36064],[-106.30256,39.36112],[-106.28381,39.34947],[-106.23952,39.36567],[-106.22563,39.37963],[-106.20673,39.37964],[-106.20237,39.39714],[-106.22855,39.41465],[-106.22321,39.4331],[-106.25164,39.46504],[-106.24642,39.51275],[-106.25577,39.5199],[-106.24857,39.54391],[-106.23675,39.54859],[-106.21604,39.53168],[-106.20572,39.55821],[-106.21503,39.57519],[-106.20566,39.60387],[-106.1776,39.60906],[-106.17646,39.63572],[-106.18384,39.65215],[-106.23484,39.66203],[-106.23874,39.68027],[-106.25825,39.6798],[-106.26262,39.69785],[-106.29092,39.70407],[-106.29835,39.72057],[-106.32541,39.73323],[-106.34327,39.75873],[-106.36532,39.75292],[-106.38548,39.76716],[-106.41201,39.82867],[-106.43297,39.8654],[-106.4281,39.88216],[-106.43451,39.92491],[-106.62657,39.92479],[-106.62655,39.91867],[-107.03397,39.91891]]]},"properties":{"fips":"08037","name":"Eagle"}},{"type":"Feature","geometry":{"type":"Polygon","coordinates":[[[-104.66016,39.56591],[-104.66257,39.36204],[-104.66248,39.12953],[-104.29237,39.12874],[-104.05157,39.12814],[-104.05344,38.94108],[-104.05553,38.86887],[-103.71966,38.86683],[-103.71525,39.12825],[-103.71435,39.56633],[-104.19381,39.56523],[-104.4214,39.56369],[-104.66016,39.56591]]]},"properties":{"fips":"08039","name":"Elbert"}},{"type":"Feature","geometry":{"type":"Polygon","coordinates":[[[-105.03347,39.12978],[-105.0279,39.04186],[-105.02994,38.99963],[-105.02706,38.95488],[-105.02863,38.86873],[-105.06644,38.86918],[-105.07218,38.79938],[-104.94877,38.79856],[-104.93975,38.79227],[-104.93896,38.71052],[-104.9422,38.65013],[-104.94153,38.51957],[-104.71799,38.51956],[-104.27547,38.52113],[-104.05426,38.52239],[-104.05553,38.86887],[-104.05344,38.94108],[-104.05157,39.12814],[-104.29237,39.12874],[-104.66248,39.12953],[-105.03347,39.12978]]]},"properties":{"fips":"08041","name":"El Paso"}},{"type":"Feature","geometry":{"type":"Polygon","coordinates":[[[-106.01075,38.44657],[-105.99677,38.4203],[-105.98395,38.41999],[-105.94761,38.39053],[-105.94464,38.37864],[-105.91985,38.36716],[-105.88877,38.34081],[-105.87638,38.31595],[-105.81897,38.2736],[-105.7969,38.26505],[-105.61255,38.26487],[-105.30404,38.25823],[-105.26291,38.25905],[-105.04921,38.25797],[-104.94037,38.25827],[-104.94153,38.51957],[-104.9422,38.65013],[-105.0498,38.6524],[-105.10989,38.64777],[-105.23993,38.64746],[-105.23704,38.69727],[-105.32896,38.69756],[-105.96975,38.69355],[-105.92621,38.67991],[-105.90791,38.65094],[-105.91566,38.63005],[-105.88715,38.62133],[-105.87854,38.60523],[-105.89249,38.57329],[-105.88543,38.56131],[-105.90376,38.54798],[-105.90872,38.50563],[-105.93819,38.50335],[-106.01075,38.44657]]]},"properties":{"fips":"08043","name":"Fremont"}},{"type":"Feature","geometry":{"type":"Polygon","coordinates":[[[-109.05136,39.4977],[-109.05076,39.36668],[-108.57017,39.36649],[-108.36774,39.36612],[-107.88414,39.36619],[-107.43095,39.36618],[-107.11345,39.36607],[-107.11387,39.62489],[-107.11367,39.91911],[-107.03397,39.91891],[-107.03205,40.00294],[-107.03736,40.09154],[-107.31699,40.09076],[-107.31925,40.00377],[-107.31875,39.91497],[-107.43166,39.91772],[-107.43177,39.82838],[-107.69423,39.83011],[-107.78721,39.82505],[-107.9385,39.825],[-107.93855,39.69446],[-108.55471,39.68778],[-108.55463,39.65016],[-108.89573,39.65034],[-108.8957,39.66049],[-109.05104,39.66047],[-109.05136,39.4977]]]},"properties":{"fips":"08045","name":"Garfield"}},{"type":"Feature","geometry":{"type":"Polygon","coordinates":[[[-105.6758,39.93245],[-105.69972,39.8915],[-105.69035,39.852],[-105.63328,39.8437],[-105.62895,39.83274],[-105.5455,39.78688],[-105.54243,39.77377],[-105.49713,39.75786],[-105.42259,39.7552],[-105.39795,39.74604],[-105.39785,39.91289],[-105.41902,39.92874],[-105.45735,39.93219],[-105.6758,39.93245]]]},"properties":{"fips":"08047","name":"Gilpin"}},{"type":"Feature","geometry":{"type":"Polygon","coordinates":[[[-106.65211,40.44523],[-106.65283,40.34156],[-106.63226,40.34156],[-106.63699,40.17898],[-106.63703,40.00211],[-106.62611,39.99999],[-106.62657,39.92479],[-106.43451,39.92491],[-106.39526,39.92459],[-106.39543,39.91402],[-106.24691,39.9127],[-106.20057,39.86404],[-106.17114,39.84529],[-106.13148,39.8442],[-106.08411,39.80666],[-106.08121,39.7874],[-106.06483,39.76073],[-106.05855,39.7247],[-106.03811,39.71206],[-106.02591,39.68914],[-105.99634,39.68412],[-105.92462,39.69897],[-105.90828,39.72625],[-105.88371,39.73701],[-105.88048,39.7593],[-105.88762,39.7966],[-105.85494,39.79615],[-105.82295,39.7856],[-105.79901,39.80343],[-105.77703,39.79811],[-105.73643,39.8048],[-105.71698,39.83547],[-105.69035,39.852],[-105.69972,39.8915],[-105.6758,39.93245],[-105.69359,39.94188],[-105.68316,39.99288],[-105.68982,40.01511],[-105.65279,40.02377],[-105.63741,40.04551],[-105.64858,40.06198],[-105.63543,40.07495],[-105.63465,40.11323],[-105.62609,40.12735],[-105.63655,40.14638],[-105.66773,40.15828],[-105.67769,40.20167],[-105.67056,40.2078],[-105.65332,40.26046],[-105.68243,40.2728],[-105.68577,40.30255],[-105.70168,40.32431],[-105.72909,40.33528],[-105.73634,40.34662],[-105.7677,40.35976],[-105.79073,40.38626],[-105.79095,40.39864],[-105.81727,40.42432],[-105.80569,40.44788],[-105.81105,40.47577],[-105.85493,40.48625],[-105.89175,40.47666],[-105.90326,40.43276],[-105.89767,40.41773],[-105.94671,40.37725],[-105.95966,40.34815],[-105.98665,40.36458],[-106.01085,40.3619],[-106.01862,40.3733],[-106.08984,40.35006],[-106.09939,40.35447],[-106.14938,40.33197],[-106.17473,40.34318],[-106.19693,40.32562],[-106.23007,40.32338],[-106.26566,40.36095],[-106.29107,40.3582],[-106.30551,40.3287],[-106.33712,40.33973],[-106.35376,40.35754],[-106.38906,40.34611],[-106.42362,40.35253],[-106.44342,40.34653],[-106.48984,40.41158],[-106.52674,40.38409],[-106.53133,40.36662],[-106.55668,40.37728],[-106.59462,40.38318],[-106.61232,40.37938],[-106.62884,40.42218],[-106.65211,40.44523]]]},"properties":{"fips":"08049","name":"Grand"}},{"type":"Feature","geometry":{"type":"Polygon","coordinates":[[[-107.63504,38.3019],[-107.61157,38.26083],[-107.58882,38.24959],[-107.58098,38.21269],[-107.56219,38.1582],[-107.56862,38.14727],[-107.00112,38.14707],[-107.0006,38.42562],[-106.87115,38.42526],[-106.24694,38.42277],[-106.24536,38.43917],[-106.26607,38.44174],[-106.28853,38.46137],[-106.31176,38.49496],[-106.33821,38.49821],[-106.35418,38.53338],[-106.34462,38.56856],[-106.36102,38.59449],[-106.36525,38.6159],[-106.40119,38.6397],[-106.42954,38.65124],[-106.44018,38.68687],[-106.45187,38.69834],[-106.42527,38.71031],[-106.41743,38.72568],[-106.41926,38.766],[-106.41505,38.79964],[-106.42271,38.80763],[-106.40699,38.82933],[-106.38363,38.82471],[-106.3643,38.85342],[-106.3275,38.8823],[-106.3261,38.911],[-106.34524,38.90707],[-106.40212,38.91062],[-106.42183,38.92807],[-106.43717,38.91491],[-106.46503,38.91035],[-106.52851,38.95988],[-106.52839,38.98073],[-106.55421,38.99871],[-106.57716,38.99044],[-106.59921,38.99799],[-106.6116,38.99543],[-106.63833,39.01922],[-106.65549,39.04442],[-106.71031,39.04757],[-106.74936,39.04253],[-106.75134,39.02579],[-106.79969,38.97965],[-106.82725,38.97772],[-106.8469,38.98701],[-106.86169,39.00944],[-106.88205,38.99243],[-106.91537,38.9995],[-106.96469,39.01755],[-106.96734,39.03085],[-106.99614,39.03417],[-106.98682,39.06716],[-107.03633,39.09493],[-107.06632,39.11881],[-107.28249,39.11872],[-107.29569,39.15365],[-107.31874,39.16531],[-107.35366,39.17332],[-107.37561,39.19793],[-107.37931,39.23109],[-107.39449,39.2563],[-107.42807,39.2576],[-107.43026,39.24054],[-107.45107,39.23067],[-107.48439,39.23522],[-107.50061,39.21792],[-107.50061,38.79921],[-107.50065,38.66855],[-107.50002,38.30193],[-107.63504,38.3019]]]},"properties":{"fips":"08051","name":"Gunnison"}},{"type":"Feature","geometry":{"type":"Polygon","coordinates":[[[-107.56862,38.14727],[-107.56539,38.09887],[-107.55358,38.0792],[-107.53326,38.08006],[-107.51088,38.06088],[-107.53986,38.02711],[-107.54925,37.99848],[-107.57389,38.00638],[-107.59137,37.99225],[-107.58822,37.97031],[-107.56887,37.96502],[-107.53259,37.94391],[-107.5359,37.92012],[-107.52017,37.90131],[-107.53602,37.87391],[-107.51786,37.85698],[-107.51655,37.82645],[-107.49031,37.82428],[-107.46884,37.80973],[-107.45811,37.7821],[-107.48224,37.76835],[-107.48218,37.6395],[-107.48213,37.42267],[-107.12868,37.42294],[-107.12387,37.67503],[-107.14514,37.6755],[-107.13736,37.82879],[-107.13819,37.93885],[-107.11067,37.94334],[-107.06778,37.9613],[-107.04136,37.94868],[-107.0006,37.95604],[-107.00112,38.14707],[-107.56862,38.14727]]]},"properties":{"fips":"08053","name":"Hinsdale"}},{"type":"Feature","geometry":{"type":"Polygon","coordinates":[[[-105.45725,37.75146],[-105.45424,37.72395],[-105.4773,37.70769],[-105.47735,37.66575],[-105.48698,37.65348],[-105.50175,37.59757],[-105.48552,37.5779],[-105.45449,37.59048],[-105.44228,37.61185],[-105.40031,37.61342],[-105.3703,37.6394],[-105.34856,37.63776],[-105.29762,37.65814],[-105.23598,37.62077],[-105.21423,37.62632],[-105.18999,37.6141],[-105.19324,37.59217],[-105.21843,37.5835],[-105.18402,37.55584],[-105.17132,37.51325],[-105.17537,37.45629],[-105.15618,37.45709],[-105.13857,37.40069],[-105.16642,37.38877],[-105.16891,37.36151],[-105.15418,37.29313],[-105.11542,37.29629],[-105.09216,37.31535],[-105.03641,37.34166],[-104.9955,37.37555],[-104.97123,37.37624],[-104.94674,37.39145],[-104.91115,37.39394],[-104.88426,37.38582],[-104.83829,37.39867],[-104.74894,37.40703],[-104.71135,37.43748],[-104.69507,37.43992],[-104.69993,37.46984],[-104.6897,37.49442],[-104.64923,37.49532],[-104.62765,37.5109],[-104.62034,37.53005],[-104.54865,37.5747],[-104.54842,37.60942],[-104.45493,37.74084],[-104.45672,37.74788],[-104.37553,37.79859],[-104.35111,37.81749],[-104.64638,37.90053],[-105.01373,37.88127],[-105.0348,37.89458],[-105.04992,37.91548],[-105.0632,37.91698],[-105.06606,37.94421],[-105.08438,37.95538],[-105.10851,37.9434],[-105.12597,37.95117],[-105.14795,38.00539],[-105.16865,38.01895],[-105.19459,38.00756],[-105.19707,37.99242],[-105.21537,37.97052],[-105.23856,37.96284],[-105.28322,37.89999],[-105.29743,37.90935],[-105.31708,37.93895],[-105.37709,37.9161],[-105.41363,37.89053],[-105.44027,37.89746],[-105.4732,37.89597],[-105.47849,37.87985],[-105.45054,37.87811],[-105.42889,37.85173],[-105.43518,37.80477],[-105.45491,37.7957],[-105.44945,37.77813],[-105.45725,37.75146]]]},"properties":{"fips":"08055","name":"Huerfano"}},{"type":"Feature","geometry":{"type":"Polygon","coordinates":[[[-106.85777,41.00266],[-106.87058,40.98122],[-106.86989,40.95672],[-106.85235,40.92518],[-106.82857,40.92466],[-106.80064,40.8959],[-106.77006,40.8965],[-106.74085,40.8898],[-106.73934,40.87084],[-106.68588,40.88582],[-106.65447,40.84554],[-106.6631,40.82752],[-106.63839,40.817],[-106.63692,40.78949],[-106.66998,40.76031],[-106.67642,40.73555],[-106.66851,40.69463],[-106.68688,40.68308],[-106.69183,40.65996],[-106.68065,40.64928],[-106.70615,40.6166],[-106.69477,40.59201],[-106.70234,40.57802],[-106.65311,40.49473],[-106.66706,40.47606],[-106.65211,40.44523],[-106.62884,40.42218],[-106.61232,40.37938],[-106.59462,40.38318],[-106.55668,40.37728],[-106.53133,40.36662],[-106.52674,40.38409],[-106.48984,40.41158],[-106.44342,40.34653],[-106.42362,40.35253],[-106.38906,40.34611],[-106.35376,40.35754],[-106.33712,40.33973],[-106.30551,40.3287],[-106.29107,40.3582],[-106.26566,40.36095],[-106.23007,40.32338],[-106.19693,40.32562],[-106.17473,40.34318],[-106.14938,40.33197],[-106.09939,40.35447],[-106.08984,40.35006],[-106.01862,40.3733],[-106.01085,40.3619],[-105.98665,40.36458],[-105.95966,40.34815],[-105.94671,40.37725],[-105.89767,40.41773],[-105.90326,40.43276],[-105.89175,40.47666],[-105.85493,40.48625],[-105.8523,40.50655],[-105.86909,40.52074],[-105.90786,40.51549],[-105.91089,40.56642],[-105.92125,40.57256],[-105.93021,40.60619],[-105.94206,40.60908],[-105.94832,40.64175],[-105.98874,40.70961],[-105.99627,40.73313],[-106.0107,40.74104],[-106.05771,40.81712],[-106.10126,40.84356],[-106.1084,40.86326],[-106.12689,40.86956],[-106.13662,40.90186],[-106.16817,40.9184],[-106.1876,40.93775],[-106.18423,40.95521],[-106.19537,40.98994],[-106.19055,40.99761],[-106.32116,40.99912],[-106.45386,41.00206],[-106.85777,41.00266]]]},"properties":{"fips":"08057","name":"Jackson"}},{"type":"Feature","geometry":{"type":"Polygon","coordinates":[[[-105.39795,39.74604],[-105.39895,39.56606],[-105.39812,39.46846],[-105.39787,39.12956],[-105.33038,39.12947],[-105.32944,39.12949],[-105.31356,39.15912],[-105.28738,39.17944],[-105.28293,39.19995],[-105.26005,39.21045],[-105.26351,39.22926],[-105.22078,39.26806],[-105.16657,39.36175],[-105.16434,39.39114],[-105.17096,39.40783],[-105.12347,39.43431],[-105.12708,39.47819],[-105.09333,39.48805],[-105.0784,39.51149],[-105.07304,39.54527],[-105.04874,39.56609],[-105.05364,39.61398],[-105.0914,39.61433],[-105.10987,39.63507],[-105.07327,39.63874],[-105.07197,39.65995],[-105.05326,39.66779],[-105.05325,39.79106],[-105.05289,39.91422],[-105.07169,39.89983],[-105.09669,39.89979],[-105.10861,39.91414],[-105.14714,39.91389],[-105.39785,39.91289],[-105.39795,39.74604]]]},"properties":{"fips":"08059","name":"Jefferson"}},{"type":"Feature","geometry":{"type":"Polygon","coordinates":[[[-103.50467,38.51641],[-103.50698,38.34226],[-103.50176,38.26502],[-103.39994,38.26543],[-102.82291,38.26649],[-102.74233,38.26697],[-102.21107,38.26817],[-102.04457,38.26875],[-102.04529,38.61517],[-103.06223,38.61502],[-103.17294,38.61245],[-103.17288,38.52532],[-103.50467,38.52366],[-103.50467,38.51641]]]},"properties":{"fips":"08061","name":"Kiowa"}},{"type":"Feature","geometry":{"type":"Polygon","coordinates":[[[-103.15438,39.56565],[-103.15525,39.12798],[-103.16307,39.12799],[-103.16302,39.03761],[-102.72411,39.0402],[-102.71577,39.03868],[-102.40993,39.04415],[-102.36773,39.04563],[-102.04657,39.04704],[-102.04719,39.13315],[-102.04937,39.42333],[-102.04976,39.56818],[-102.04981,39.57406],[-102.42565,39.57066],[-102.80293,39.56784],[-103.15438,39.56565]]]},"properties":{"fips":"08063","name":"Kit Carson"}},{"type":"Feature","geometry":{"type":"Polygon","coordinates":[[[-106.42649,39.36187],[-106.43493,39.3411],[-106.43208,39.3167],[-106.50238,39.29857],[-106.50403,39.28476],[-106.48329,39.27267],[-106.48313,39.2551],[-106.49765,39.24202],[-106.48975,39.22772],[-106.49365,39.19833],[-106.50861,39.16668],[-106.56126,39.15568],[-106.56399,39.10604],[-106.58634,39.08774],[-106.57797,39.05791],[-106.19101,39.05607],[-106.19125,39.06845],[-106.16966,39.08642],[-106.17922,39.10346],[-106.21017,39.10392],[-106.17385,39.13708],[-106.18553,39.18659],[-106.1683,39.23072],[-106.18512,39.24269],[-106.18371,39.31028],[-106.15357,39.32042],[-106.13993,39.33955],[-106.15294,39.36276],[-106.13553,39.37955],[-106.20673,39.37964],[-106.22563,39.37963],[-106.23952,39.36567],[-106.28381,39.34947],[-106.30256,39.36112],[-106.37082,39.36064],[-106.38063,39.37615],[-106.40063,39.38096],[-106.42649,39.36187]]]},"properties":{"fips":"08065","name":"Lake"}},{"type":"Feature","geometry":{"type":"Polygon","coordinates":[[[-107.97009,37.63959],[-108.02301,37.591],[-108.01828,37.56714],[-108.0349,37.53204],[-108.03793,37.50319],[-108.03315,37.46494],[-108.05303,37.43752],[-108.07804,37.43888],[-108.10534,37.40557],[-108.10586,37.38207],[-108.13982,37.37304],[-108.15247,37.36259],[-108.17303,37.36639],[-108.19778,37.35494],[-108.22569,37.28627],[-108.24731,37.24989],[-108.29516,37.21501],[-108.29741,37.17116],[-108.29015,37.14696],[-108.31048,37.12846],[-108.31059,37.10462],[-108.32106,37.0971],[-108.33479,37.05422],[-108.3718,37.02911],[-108.3793,36.99946],[-108.24936,36.99902],[-108.00062,37],[-107.7124,37],[-107.48174,37],[-107.48206,37.21484],[-107.48213,37.42267],[-107.48218,37.6395],[-107.80612,37.64015],[-107.97009,37.63959]]]},"properties":{"fips":"08067","name":"La Plata"}},{"type":"Feature","geometry":{"type":"Polygon","coordinates":[[[-106.19055,40.99761],[-106.19537,40.98994],[-106.18423,40.95521],[-106.1876,40.93775],[-106.16817,40.9184],[-106.13662,40.90186],[-106.12689,40.86956],[-106.1084,40.86326],[-106.10126,40.84356],[-106.05771,40.81712],[-106.0107,40.74104],[-105.99627,40.73313],[-105.98874,40.70961],[-105.94832,40.64175],[-105.94206,40.60908],[-105.93021,40.60619],[-105.92125,40.57256],[-105.91089,40.56642],[-105.90786,40.51549],[-105.86909,40.52074],[-105.8523,40.50655],[-105.85493,40.48625],[-105.81105,40.47577],[-105.80569,40.44788],[-105.81727,40.42432],[-105.79095,40.39864],[-105.79073,40.38626],[-105.7677,40.35976],[-105.73634,40.34662],[-105.72909,40.33528],[-105.70168,40.32431],[-105.68577,40.30255],[-105.68243,40.2728],[-105.65332,40.26046],[-105.56174,40.26151],[-105.391,40.25788],[-105.28944,40.26279],[-105.15906,40.26122],[-105.05509,40.26179],[-105.05672,40.34928],[-104.94555,40.3491],[-104.94443,40.4142],[-104.94354,40.69651],[-104.94337,40.99808],[-105.27686,40.99817],[-105.7248,40.99691],[-106.06118,40.997],[-106.19055,40.99761]]]},"properties":{"fips":"08069","name":"Larimer"}},{"type":"Feature","geometry":{"type":"Polygon","coordinates":[[[-105.15418,37.29313],[-105.15504,36.99534],[-105.00055,36.99326],[-104.64503,36.99338],[-104.62456,36.99438],[-104.33883,36.99354],[-104.00785,36.99624],[-103.73325,36.99802],[-103.0861,37.00017],[-103.08254,37.38161],[-103.07466,37.38175],[-103.07594,37.64342],[-103.40434,37.64358],[-104.0582,37.64405],[-104.06113,37.7347],[-104.35111,37.81749],[-104.37553,37.79859],[-104.45672,37.74788],[-104.45493,37.74084],[-104.54842,37.60942],[-104.54865,37.5747],[-104.62034,37.53005],[-104.62765,37.5109],[-104.64923,37.49532],[-104.6897,37.49442],[-104.69993,37.46984],[-104.69507,37.43992],[-104.71135,37.43748],[-104.74894,37.40703],[-104.83829,37.39867],[-104.88426,37.38582],[-104.91115,37.39394],[-104.94674,37.39145],[-104.97123,37.37624],[-104.9955,37.37555],[-105.03641,37.34166],[-105.09216,37.31535],[-105.11542,37.29629],[-105.15418,37.29313]]]},"properties":{"fips":"08071","name":"Las Animas"}},{"type":"Feature","geometry":{"type":"Polygon","coordinates":[[[-104.05553,38.86887],[-104.05426,38.52239],[-104.05392,38.52239],[-103.61299,38.52255],[-103.61298,38.51788],[-103.50467,38.51641],[-103.50467,38.52366],[-103.17288,38.52532],[-103.17294,38.61245],[-103.17247,38.69006],[-103.16416,38.69013],[-103.16302,39.03761],[-103.16307,39.12799],[-103.15525,39.12798],[-103.15438,39.56565],[-103.49125,39.56569],[-103.70707,39.56629],[-103.71435,39.56633],[-103.71525,39.12825],[-103.71966,38.86683],[-104.05553,38.86887]]]},"properties":{"fips":"08073","name":"Lincoln"}},{"type":"Feature","geometry":{"type":"Polygon","coordinates":[[[-103.57377,41.00172],[-103.57373,40.89109],[-103.58037,40.70202],[-103.58184,40.52338],[-103.4672,40.52325],[-103.46538,40.43635],[-103.22656,40.43609],[-102.77996,40.43845],[-102.6648,40.43847],[-102.66469,40.70519],[-102.65088,40.70534],[-102.65131,40.7494],[-102.65346,41.00233],[-102.86578,41.00199],[-103.38249,41.00223],[-103.57377,41.00172]]]},"properties":{"fips":"08075","name":"Logan"}},{"type":"Feature","geometry":{"type":"Polygon","coordinates":[[[-109.05076,39.36668],[-109.05151,39.1261],[-109.05419,38.87498],[-109.05954,38.71989],[-109.05996,38.50003],[-109.05996,38.49999],[-108.58368,38.49999],[-108.37914,38.49999],[-108.3787,38.6681],[-108.37895,38.82911],[-108.14112,38.90648],[-108.13774,38.92605],[-108.12079,38.92721],[-108.08686,38.9678],[-108.09479,38.97968],[-108.05378,39.01405],[-107.9872,39.05288],[-107.98217,39.05988],[-107.91669,39.06383],[-107.90681,39.06073],[-107.85824,39.0798],[-107.79228,39.06051],[-107.76549,39.04329],[-107.73799,39.06616],[-107.68956,39.08717],[-107.65982,39.11255],[-107.63789,39.14202],[-107.50061,39.21792],[-107.48439,39.23522],[-107.45107,39.23067],[-107.43026,39.24054],[-107.42807,39.2576],[-107.39449,39.2563],[-107.37917,39.2691],[-107.39851,39.29511],[-107.41261,39.29188],[-107.46519,39.31452],[-107.43051,39.34822],[-107.43095,39.36618],[-107.88414,39.36619],[-108.36774,39.36612],[-108.57017,39.36649],[-109.05076,39.36668]]]},"properties":{"fips":"08077","name":"Mesa"}},{"type":"Feature","geometry":{"type":"Polygon","coordinates":[[[-107.0006,37.95604],[-107.04136,37.94868],[-107.06778,37.9613],[-107.11067,37.94334],[-107.13819,37.93885],[-107.13736,37.82879],[-107.14514,37.6755],[-107.12387,37.67503],[-107.12868,37.42294],[-107.12874,37.39241],[-106.71077,37.39624],[-106.71077,37.40423],[-106.71162,37.66427],[-106.69564,37.66427],[-106.69384,37.83524],[-106.69352,37.87352],[-106.71468,37.8719],[-106.73667,37.88788],[-106.77307,37.88558],[-106.80103,37.9137],[-106.84727,37.91917],[-106.87988,37.94986],[-106.87917,37.96111],[-106.92031,37.96743],[-106.94632,37.95401],[-106.96798,37.97504],[-107.0006,37.95604]]]},"properties":{"fips":"08079","name":"Mineral"}},{"type":"Feature","geometry":{"type":"Polygon","coordinates":[[[-109.04837,40.66261],[-109.05095,40.44437],[-109.05097,40.22265],[-108.2165,40.22176],[-107.76454,40.22261],[-107.64417,40.22424],[-107.44363,40.22042],[-107.43939,40.22338],[-107.44259,40.33476],[-107.43207,40.33488],[-107.42934,40.44077],[-107.42881,40.54221],[-107.37133,40.5424],[-107.36862,40.6003],[-107.31415,40.60028],[-107.31779,41.00297],[-107.62562,41.00212],[-107.91842,41.00204],[-108.04654,41.00206],[-108.25065,41.00011],[-108.50066,41.00011],[-108.88414,41.00009],[-109.05008,41.00066],[-109.04845,40.82608],[-109.04837,40.66261]]]},"properties":{"fips":"08081","name":"Moffat"}},{"type":"Feature","geometry":{"type":"Polygon","coordinates":[[[-109.04346,37.48482],[-109.04581,37.37499],[-109.04599,37.17728],[-109.04522,36.99908],[-108.62031,36.99929],[-108.3793,36.99946],[-108.3718,37.02911],[-108.33479,37.05422],[-108.32106,37.0971],[-108.31059,37.10462],[-108.31048,37.12846],[-108.29015,37.14696],[-108.29741,37.17116],[-108.29516,37.21501],[-108.24731,37.24989],[-108.22569,37.28627],[-108.19778,37.35494],[-108.17303,37.36639],[-108.15247,37.36259],[-108.13982,37.37304],[-108.10586,37.38207],[-108.10534,37.40557],[-108.07804,37.43888],[-108.05303,37.43752],[-108.03315,37.46494],[-108.03793,37.50319],[-108.0349,37.53204],[-108.01828,37.56714],[-108.02301,37.591],[-107.97009,37.63959],[-108.108,37.63875],[-108.16114,37.63526],[-108.66606,37.6332],[-108.69476,37.63152],[-108.91708,37.6319],[-109.04346,37.48482]]]},"properties":{"fips":"08083","name":"Montezuma"}},{"type":"Feature","geometry":{"type":"Polygon","coordinates":[[[-109.05996,38.49999],[-109.06006,38.27549],[-109.04176,38.16469],[-109.04184,38.15303],[-108.90675,38.15496],[-108.02793,38.15264],[-107.96579,38.15233],[-107.94696,38.15249],[-107.93814,38.17394],[-107.93759,38.21899],[-107.98418,38.23394],[-107.98408,38.24839],[-108.01153,38.25526],[-108.0866,38.2552],[-108.08635,38.28433],[-108.10416,38.28418],[-108.10482,38.31372],[-108.12327,38.31364],[-108.13238,38.33157],[-107.6357,38.33215],[-107.63504,38.3019],[-107.50002,38.30193],[-107.50065,38.66855],[-107.84856,38.66811],[-108.3787,38.6681],[-108.37914,38.49999],[-108.58368,38.49999],[-109.05996,38.49999]]]},"properties":{"fips":"08085","name":"Montrose"}},{"type":"Feature","geometry":{"type":"Polygon","coordinates":[[[-103.58184,40.52338],[-104.14771,40.52439],[-104.15049,40.35025],[-104.15033,40.00086],[-103.7057,40.00137],[-103.47199,40.00153],[-103.47098,40.34976],[-103.46466,40.40816],[-103.46538,40.43635],[-103.4672,40.52325],[-103.58184,40.52338]]]},"properties":{"fips":"08087","name":"Morgan"}},{"type":"Feature","geometry":{"type":"Polygon","coordinates":[[[-104.05824,38.14649],[-104.05937,37.87501],[-104.06113,37.7347],[-104.0582,37.64405],[-103.40434,37.64358],[-103.40368,37.82279],[-103.39862,38.04143],[-103.39994,38.26543],[-103.50176,38.26502],[-103.50936,38.17251],[-103.61928,38.17146],[-103.61917,38.11336],[-103.83562,38.11334],[-103.86198,38.12713],[-103.90066,38.12541],[-103.97438,38.13212],[-103.99325,38.14635],[-104.02216,38.14095],[-104.05824,38.14649]]]},"properties":{"fips":"08089","name":"Otero"}},{"type":"Feature","geometry":{"type":"Polygon","coordinates":[[[-107.63504,38.3019],[-107.6357,38.33215],[-108.13238,38.33157],[-108.12327,38.31364],[-108.10482,38.31372],[-108.10416,38.28418],[-108.08635,38.28433],[-108.0866,38.2552],[-108.01153,38.25526],[-107.98408,38.24839],[-107.98418,38.23394],[-107.93759,38.21899],[-107.93814,38.17394],[-107.94696,38.15249],[-107.96579,38.15233],[-107.95172,38.14498],[-107.95157,38.11612],[-107.89147,38.11596],[-107.89377,38.05774],[-107.88821,38.04581],[-107.90019,38.02625],[-107.8833,38.00737],[-107.84913,38.0086],[-107.84908,37.99261],[-107.79547,37.98852],[-107.77867,37.96095],[-107.7489,37.95312],[-107.73331,37.92695],[-107.73828,37.90543],[-107.69566,37.89241],[-107.66376,37.90352],[-107.63793,37.92086],[-107.64159,37.96501],[-107.56887,37.96502],[-107.58822,37.97031],[-107.59137,37.99225],[-107.57389,38.00638],[-107.54925,37.99848],[-107.53986,38.02711],[-107.51088,38.06088],[-107.53326,38.08006],[-107.55358,38.0792],[-107.56539,38.09887],[-107.56862,38.14727],[-107.56219,38.1582],[-107.58098,38.21269],[-107.58882,38.24959],[-107.61157,38.26083],[-107.63504,38.3019]]]},"properties":{"fips":"08091","name":"Ouray"}},{"type":"Feature","geometry":{"type":"Polygon","coordinates":[[[-106.13553,39.37955],[-106.15294,39.36276],[-106.13993,39.33955],[-106.15357,39.32042],[-106.18371,39.31028],[-106.18512,39.24269],[-106.1683,39.23072],[-106.18553,39.18659],[-106.17385,39.13708],[-106.21017,39.10392],[-106.17922,39.10346],[-106.16966,39.08642],[-106.19125,39.06845],[-106.19101,39.05607],[-106.1825,39.03855],[-106.19262,39.01735],[-106.16853,38.99125],[-106.14541,38.9979],[-106.10895,38.98738],[-106.10438,38.97414],[-106.11099,38.9401],[-106.02814,38.94285],[-105.99445,38.91486],[-105.96577,38.90588],[-105.9743,38.88246],[-105.94124,38.88559],[-105.92512,38.87218],[-105.94317,38.85231],[-105.94162,38.84017],[-105.90659,38.80696],[-105.94786,38.74382],[-105.94618,38.71672],[-105.96975,38.69355],[-105.32896,38.69756],[-105.32947,38.99285],[-105.33038,39.12947],[-105.39787,39.12956],[-105.39812,39.46846],[-105.39895,39.56606],[-105.58799,39.5682],[-105.82966,39.56486],[-105.81581,39.55198],[-105.82321,39.52995],[-105.86166,39.52861],[-105.85412,39.50452],[-105.89197,39.48417],[-105.90183,39.46425],[-105.93866,39.4585],[-105.94415,39.44091],[-105.96679,39.43804],[-105.9517,39.41462],[-105.99286,39.40186],[-106.01385,39.3869],[-106.01762,39.3655],[-106.04632,39.35743],[-106.09679,39.3779],[-106.13553,39.37955]]]},"properties":{"fips":"08093","name":"Park"}},{"type":"Feature","geometry":{"type":"Polygon","coordinates":[[[-102.65131,40.7494],[-102.65088,40.70534],[-102.66469,40.70519],[-102.6648,40.43847],[-102.39723,40.43971],[-102.05146,40.44001],[-102.0514,40.69754],[-102.05129,40.74959],[-102.38226,40.74935],[-102.65131,40.7494]]]},"properties":{"fips":"08095","name":"Phillips"}},{"type":"Feature","geometry":{"type":"Polygon","coordinates":[[[-107.43095,39.36618],[-107.43051,39.34822],[-107.46519,39.31452],[-107.41261,39.29188],[-107.39851,39.29511],[-107.37917,39.2691],[-107.39449,39.2563],[-107.37931,39.23109],[-107.37561,39.19793],[-107.35366,39.17332],[-107.31874,39.16531],[-107.29569,39.15365],[-107.28249,39.11872],[-107.06632,39.11881],[-107.03633,39.09493],[-106.98682,39.06716],[-106.99614,39.03417],[-106.96734,39.03085],[-106.96469,39.01755],[-106.91537,38.9995],[-106.88205,38.99243],[-106.86169,39.00944],[-106.8469,38.98701],[-106.82725,38.97772],[-106.79969,38.97965],[-106.75134,39.02579],[-106.74936,39.04253],[-106.71031,39.04757],[-106.65549,39.04442],[-106.63833,39.01922],[-106.6116,38.99543],[-106.59921,38.99799],[-106.59169,39.02492],[-106.59723,39.04482],[-106.57797,39.05791],[-106.58634,39.08774],[-106.56399,39.10604],[-106.56126,39.15568],[-106.50861,39.16668],[-106.49365,39.19833],[-106.48975,39.22772],[-106.49765,39.24202],[-106.48313,39.2551],[-106.48329,39.27267],[-106.50403,39.28476],[-106.50238,39.29857],[-106.43208,39.3167],[-106.43493,39.3411],[-106.42649,39.36187],[-106.9734,39.36564],[-107.11345,39.36607],[-107.43095,39.36618]]]},"properties":{"fips":"08097","name":"Pitkin"}},{"type":"Feature","geometry":{"type":"Polygon","coordinates":[[[-102.74233,38.26697],[-102.74168,38.09698],[-102.74046,37.82406],[-102.74771,37.82345],[-102.74761,37.64364],[-102.54,37.64373],[-102.04158,37.64428],[-102.04199,37.73854],[-102.04464,38.04553],[-102.04451,38.26241],[-102.04457,38.26875],[-102.21107,38.26817],[-102.74233,38.26697]]]},"properties":{"fips":"08099","name":"Prowers"}},{"type":"Feature","geometry":{"type":"Polygon","coordinates":[[[-105.04921,38.25797],[-105.04829,38.12777],[-105.05068,38.11382],[-105.04992,37.91548],[-105.0348,37.89458],[-105.01373,37.88127],[-104.64638,37.90053],[-104.35111,37.81749],[-104.06113,37.7347],[-104.05937,37.87501],[-104.05824,38.14649],[-104.05472,38.26189],[-104.05392,38.52239],[-104.05426,38.52239],[-104.27547,38.52113],[-104.71799,38.51956],[-104.94153,38.51957],[-104.94037,38.25827],[-105.04921,38.25797]]]},"properties":{"fips":"08101","name":"Pueblo"}},{"type":"Feature","geometry":{"type":"Polygon","coordinates":[[[-109.05097,40.22265],[-109.05061,39.87497],[-109.05104,39.66047],[-108.8957,39.66049],[-108.89573,39.65034],[-108.55463,39.65016],[-108.55471,39.68778],[-107.93855,39.69446],[-107.9385,39.825],[-107.78721,39.82505],[-107.69423,39.83011],[-107.43177,39.82838],[-107.43166,39.91772],[-107.31875,39.91497],[-107.31925,40.00377],[-107.31699,40.09076],[-107.03736,40.09154],[-107.03792,40.22477],[-107.04278,40.22537],[-107.43939,40.22338],[-107.44363,40.22042],[-107.64417,40.22424],[-107.76454,40.22261],[-108.2165,40.22176],[-109.05097,40.22265]]]},"properties":{"fips":"08103","name":"Rio Blanco"}},{"type":"Feature","geometry":{"type":"Polygon","coordinates":[[[-106.69384,37.83524],[-106.69564,37.66427],[-106.71162,37.66427],[-106.71077,37.40423],[-106.67837,37.4036],[-106.48797,37.40158],[-106.48797,37.39935],[-106.14887,37.4011],[-106.03933,37.40085],[-106.03841,37.74835],[-106.25261,37.74811],[-106.58637,37.74781],[-106.58714,37.83443],[-106.69384,37.83524]]]},"properties":{"fips":"08105","name":"Rio Grande"}},{"type":"Feature","geometry":{"type":"Polygon","coordinates":[[[-107.31779,41.00297],[-107.31415,40.60028],[-107.36862,40.6003],[-107.37133,40.5424],[-107.42881,40.54221],[-107.42934,40.44077],[-107.43207,40.33488],[-107.44259,40.33476],[-107.43939,40.22338],[-107.04278,40.22537],[-107.03792,40.22477],[-107.03736,40.09154],[-107.03205,40.00294],[-107.03397,39.91891],[-106.62655,39.91867],[-106.62657,39.92479],[-106.62611,39.99999],[-106.63703,40.00211],[-106.63699,40.17898],[-106.63226,40.34156],[-106.65283,40.34156],[-106.65211,40.44523],[-106.66706,40.47606],[-106.65311,40.49473],[-106.70234,40.57802],[-106.69477,40.59201],[-106.70615,40.6166],[-106.68065,40.64928],[-106.69183,40.65996],[-106.68688,40.68308],[-106.66851,40.69463],[-106.67642,40.73555],[-106.66998,40.76031],[-106.63692,40.78949],[-106.63839,40.817],[-106.6631,40.82752],[-106.65447,40.84554],[-106.68588,40.88582],[-106.73934,40.87084],[-106.74085,40.8898],[-106.77006,40.8965],[-106.80064,40.8959],[-106.82857,40.92466],[-106.85235,40.92518],[-106.86989,40.95672],[-106.87058,40.98122],[-106.85777,41.00266],[-107.00061,41.00344],[-107.31779,41.00297]]]},"properties":{"fips":"08107","name":"Routt"}},{"type":"Feature","geometry":{"type":"Polygon","coordinates":[[[-107.00112,38.14707],[-107.0006,37.95604],[-106.96798,37.97504],[-106.94632,37.95401],[-106.92031,37.96743],[-106.87917,37.96111],[-106.87988,37.94986],[-106.84727,37.91917],[-106.80103,37.9137],[-106.77307,37.88558],[-106.73667,37.88788],[-106.71468,37.8719],[-106.69352,37.87352],[-106.69384,37.83524],[-106.58714,37.83443],[-106.58637,37.74781],[-106.25261,37.74811],[-106.03841,37.74835],[-105.80933,37.75045],[-105.45725,37.75146],[-105.44945,37.77813],[-105.45491,37.7957],[-105.43518,37.80477],[-105.42889,37.85173],[-105.45054,37.87811],[-105.47849,37.87985],[-105.4732,37.89597],[-105.50227,37.92295],[-105.51109,37.93913],[-105.53331,37.95518],[-105.56031,37.95189],[-105.60435,38.00874],[-105.59711,38.01364],[-105.62721,38.06731],[-105.65586,38.09229],[-105.67627,38.14617],[-105.67304,38.15913],[-105.70041,38.16918],[-105.73674,38.20956],[-105.78976,38.24436],[-105.7969,38.26505],[-105.81897,38.2736],[-105.87638,38.31595],[-105.88877,38.34081],[-105.91985,38.36716],[-105.94464,38.37864],[-105.94761,38.39053],[-105.98395,38.41999],[-105.99677,38.4203],[-106.01075,38.44657],[-106.01904,38.45442],[-106.05857,38.45694],[-106.05798,38.44469],[-106.08813,38.42228],[-106.24694,38.42277],[-106.87115,38.42526],[-107.0006,38.42562],[-107.00112,38.14707]]]},"properties":{"fips":"08109","name":"Saguache"}},{"type":"Feature","geometry":{"type":"Polygon","coordinates":[[[-107.86084,37.77552],[-107.86191,37.75602],[-107.87562,37.73885],[-107.87297,37.72242],[-107.90135,37.719],[-107.93721,37.70256],[-107.96887,37.69649],[-107.96942,37.67923],[-107.95708,37.64889],[-107.97009,37.63959],[-107.80612,37.64015],[-107.48218,37.6395],[-107.48224,37.76835],[-107.45811,37.7821],[-107.46884,37.80973],[-107.49031,37.82428],[-107.51655,37.82645],[-107.51786,37.85698],[-107.53602,37.87391],[-107.52017,37.90131],[-107.5359,37.92012],[-107.53259,37.94391],[-107.56887,37.96502],[-107.64159,37.96501],[-107.63793,37.92086],[-107.66376,37.90352],[-107.69566,37.89241],[-107.73828,37.90543],[-107.76092,37.87756],[-107.78246,37.86777],[-107.7791,37.84978],[-107.79645,37.82273],[-107.82852,37.81186],[-107.8222,37.79555],[-107.84085,37.77414],[-107.86084,37.77552]]]},"properties":{"fips":"08111","name":"San Juan"}},{"type":"Feature","geometry":{"type":"Polygon","coordinates":[[[-109.04184,38.15303],[-109.04312,37.97426],[-109.04165,37.88109],[-108.82052,37.88085],[-108.81673,37.89551],[-108.2565,37.89461],[-108.23784,37.87639],[-108.227,37.84348],[-108.21016,37.82113],[-108.17491,37.83259],[-108.14153,37.83245],[-108.11252,37.85524],[-108.09053,37.83999],[-108.05848,37.841],[-108.03086,37.8555],[-107.98921,37.85664],[-107.97139,37.83243],[-107.95076,37.83576],[-107.92135,37.82371],[-107.89251,37.80266],[-107.88626,37.78545],[-107.86084,37.77552],[-107.84085,37.77414],[-107.8222,37.79555],[-107.82852,37.81186],[-107.79645,37.82273],[-107.7791,37.84978],[-107.78246,37.86777],[-107.76092,37.87756],[-107.73828,37.90543],[-107.73331,37.92695],[-107.7489,37.95312],[-107.77867,37.96095],[-107.79547,37.98852],[-107.84908,37.99261],[-107.84913,38.0086],[-107.8833,38.00737],[-107.90019,38.02625],[-107.88821,38.04581],[-107.89377,38.05774],[-107.89147,38.11596],[-107.95157,38.11612],[-107.95172,38.14498],[-107.96579,38.15233],[-108.02793,38.15264],[-108.90675,38.15496],[-109.04184,38.15303]]]},"properties":{"fips":"08113","name":"San Miguel"}},{"type":"Feature","geometry":{"type":"Polygon","coordinates":[[[-102.65346,41.00233],[-102.65131,40.7494],[-102.38226,40.74935],[-102.05129,40.74959],[-102.05172,41.00238],[-102.29135,41.00221],[-102.62103,41.0026],[-102.65346,41.00233]]]},"properties":{"fips":"08115","name":"Sedgwick"}},{"type":"Feature","geometry":{"type":"Polygon","coordinates":[[[-106.43451,39.92491],[-106.4281,39.88216],[-106.43297,39.8654],[-106.41201,39.82867],[-106.38548,39.76716],[-106.36532,39.75292],[-106.34327,39.75873],[-106.32541,39.73323],[-106.29835,39.72057],[-106.29092,39.70407],[-106.26262,39.69785],[-106.25825,39.6798],[-106.23874,39.68027],[-106.23484,39.66203],[-106.18384,39.65215],[-106.17646,39.63572],[-106.1776,39.60906],[-106.20566,39.60387],[-106.21503,39.57519],[-106.20572,39.55821],[-106.21604,39.53168],[-106.23675,39.54859],[-106.24857,39.54391],[-106.25577,39.5199],[-106.24642,39.51275],[-106.25164,39.46504],[-106.22321,39.4331],[-106.22855,39.41465],[-106.20237,39.39714],[-106.20673,39.37964],[-106.13553,39.37955],[-106.09679,39.3779],[-106.04632,39.35743],[-106.01762,39.3655],[-106.01385,39.3869],[-105.99286,39.40186],[-105.9517,39.41462],[-105.96679,39.43804],[-105.94415,39.44091],[-105.93866,39.4585],[-105.90183,39.46425],[-105.89197,39.48417],[-105.85412,39.50452],[-105.86166,39.52861],[-105.82321,39.52995],[-105.81581,39.55198],[-105.82966,39.56486],[-105.77597,39.60514],[-105.79306,39.63633],[-105.84866,39.64416],[-105.86477,39.66722],[-105.88486,39.65708],[-105.91075,39.66229],[-105.92508,39.67942],[-105.92462,39.69897],[-105.99634,39.68412],[-106.02591,39.68914],[-106.03811,39.71206],[-106.05855,39.7247],[-106.06483,39.76073],[-106.08121,39.7874],[-106.08411,39.80666],[-106.13148,39.8442],[-106.17114,39.84529],[-106.20057,39.86404],[-106.24691,39.9127],[-106.39543,39.91402],[-106.39526,39.92459],[-106.43451,39.92491]]]},"properties":{"fips":"08117","name":"Summit"}},{"type":"Feature","geometry":{"type":"Polygon","coordinates":[[[-105.33038,39.12947],[-105.32947,38.99285],[-105.32896,38.69756],[-105.23704,38.69727],[-105.23993,38.64746],[-105.10989,38.64777],[-105.0498,38.6524],[-104.9422,38.65013],[-104.93896,38.71052],[-104.93975,38.79227],[-104.94877,38.79856],[-105.07218,38.79938],[-105.06644,38.86918],[-105.02863,38.86873],[-105.02706,38.95488],[-105.02994,38.99963],[-105.0279,39.04186],[-105.03347,39.12978],[-105.32944,39.12949],[-105.33038,39.12947]]]},"properties":{"fips":"08119","name":"Teller"}},{"type":"Feature","geometry":{"type":"Polygon","coordinates":[[[-103.70655,39.73989],[-103.70707,39.56629],[-103.49125,39.56569],[-103.15438,39.56565],[-102.80293,39.56784],[-102.80377,40.00255],[-102.7933,40.00249],[-102.79358,40.35128],[-102.78018,40.35114],[-102.77996,40.43845],[-103.22656,40.43609],[-103.46538,40.43635],[-103.46466,40.40816],[-103.47098,40.34976],[-103.47199,40.00153],[-103.7057,40.00137],[-103.70655,39.73989]]]},"properties":{"fips":"08121","name":"Washington"}},{"type":"Feature","geometry":{"type":"Polygon","coordinates":[[[-104.94337,40.99808],[-104.94354,40.69651],[-104.94443,40.4142],[-104.94555,40.3491],[-105.05672,40.34928],[-105.05509,40.26179],[-105.05552,40.00025],[-105.05282,40.00026],[-105.00801,40.00048],[-104.97924,40.04376],[-104.96107,40.04414],[-104.9614,40.00034],[-104.60406,40.00056],[-104.15033,40.00086],[-104.15049,40.35025],[-104.14771,40.52439],[-103.58184,40.52338],[-103.58037,40.70202],[-103.57373,40.89109],[-103.57377,41.00172],[-104.05325,41.00141],[-104.46767,41.00147],[-104.676,41.00096],[-104.94337,40.99808]]]},"properties":{"fips":"08123","name":"Weld"}},{"type":"Feature","geometry":{"type":"Polygon","coordinates":[[[-102.77996,40.43845],[-102.78018,40.35114],[-102.79358,40.35128],[-102.7933,40.00249],[-102.80377,40.00255],[-102.80293,39.56784],[-102.42565,39.57066],[-102.04981,39.57406],[-102.05157,39.84981],[-102.05174,40.00308],[-102.05155,40.34921],[-102.05146,40.44001],[-102.39723,40.43971],[-102.6648,40.43847],[-102.77996,40.43845]]]},"properties":{"fips":"08125","name":"Yuma"}}]}